{"type": "FeatureCollection", "features": [{"type": "Feature", "id": 15, "geometry": {"type": "Polygon", "coordinates": [[[34.4262188695851, 31.4267563291677], [34.4256833128773, 31.4267029243748], [34.42508353022, 31.4265550572525], [34.424486369745, 31.4263255293828], [34.4241384926596, 31.4261036196364], [34.423616498716, 31.4255465617231], [34.4233779600755, 31.4251303339078], [34.4231803100517, 31.4248072046971], [34.4229785574221, 31.4245438083592], [34.4226151852964, 31.4241827508068], [34.4223531476263, 31.4240910579069], [34.42205583581, 31.4239399809033], [34.4216825965892, 31.423830810898], [34.4212321920856, 31.4236445872652], [34.4207777730109, 31.4233325888554], [34.4203955542305, 31.423041804986], [34.419830124048, 31.4224002891874], [34.4191780244068, 31.4220074349352], [34.4182956389476, 31.4214954208275], [34.4173132341664, 31.4208757368212], [34.4164060587987, 31.4203846590414], [34.4157022853674, 31.419920217869], [34.4147497010603, 31.4191768669567], [34.4139826727584, 31.4185932418077], [34.4137675819434, 31.4181676557969], [34.4137473626629, 31.4177389661398], [34.4136983173434, 31.4171865050085], [34.4134300157208, 31.4170308003056], [34.4131335384394, 31.4169014478978], [34.412830673238, 31.4167391152839], [34.412549702675, 31.4164744259922], [34.4122856887113, 31.4161821167405], [34.4119522241964, 31.4157578483581], [34.4115839912867, 31.4156338383728], [34.4110266701962, 31.4156303877712], [34.4104751216798, 31.4155858396568], [34.4098308921788, 31.4154178769226], [34.4093364603447, 31.4151919748045], [34.4090365389225, 31.4149512101464], [34.4088815858242, 31.4147585283644], [34.4087888132116, 31.4144932807373], [34.4086352920278, 31.414157282058], [34.4084186291611, 31.4139452930234], [34.4081769679766, 31.4138050231709], [34.4078690614298, 31.4137013159865], [34.4075494219871, 31.4134034728603], [34.4073457631324, 31.4131275542278], [34.4072731190703, 31.4128040578369], [34.4069646663479, 31.4124869619059], [34.4065099705921, 31.4123922699118], [34.4062128285573, 31.4123440441401], [34.4057389627534, 31.4124536967089], [34.4052376228748, 31.4126258522176], [34.4048657122623, 31.4124352026649], [34.4043037405936, 31.4121371730543], [34.4036393834404, 31.411751519237], [34.4026052356988, 31.411257662826], [34.4021583948119, 31.4110321746575], [34.4019682825517, 31.4108115673311], [34.4019245624451, 31.4104716546382], [34.4018255941519, 31.4100763047317], [34.4015968210969, 31.409654394641], [34.4012701092179, 31.4093045323613], [34.4007567633555, 31.4087941693586], [34.4001217254166, 31.4081141119176], [34.3993171268745, 31.4073080911143], [34.3987602279922, 31.406633553136], [34.3984875380995, 31.4062664371314], [34.3981189791013, 31.4059458420801], [34.3977033483823, 31.4058316307151], [34.3972498366061, 31.4056851560057], [34.3966991396925, 31.4053723257802], [34.3960411282385, 31.4049269276202], [34.3955902260681, 31.4046171402791], [34.3952879375851, 31.4041915890081], [34.3950909496197, 31.4037620702956], [34.3949724708169, 31.4033211337662], [34.3947529135783, 31.4026985349558], [34.394361366692, 31.4019497831389], [34.3939225378791, 31.401183347974], [34.3935058004357, 31.4005203623539], [34.3930843342606, 31.3999805149817], [34.392565126891, 31.3994857447496], [34.3920743413186, 31.3990373988106], [34.3916308780972, 31.398651570774], [34.3911862290995, 31.3983076666957], [34.3906442647088, 31.3979217589822], [34.3902265948141, 31.3976437291303], [34.3897961356047, 31.3973522997535], [34.3894674132961, 31.3969843867966], [34.3892029654462, 31.3965648623611], [34.3889046870426, 31.3961314226596], [34.3886664906602, 31.3959011233372], [34.3882581928888, 31.3957007958534], [34.3877113120186, 31.3954405298989], [34.3872070598018, 31.3952721599756], [34.3869569840981, 31.3950743301443], [34.3866427417336, 31.3947587761505], [34.386205472396, 31.394335961382], [34.3857918610897, 31.3938486860867], [34.3854213446626, 31.3934616849744], [34.3849516407533, 31.3930314377649], [34.3841878050639, 31.3924310337807], [34.3830564012181, 31.3916282362277], [34.3821555553798, 31.3908230922044], [34.3809878685796, 31.3897857221257], [34.3806921863072, 31.3894092046658], [34.380673568723, 31.3891393740332], [34.3807843336924, 31.388934540693], [34.3811607134234, 31.3884477572921], [34.3813049693833, 31.388109478293], [34.3811342149192, 31.3877607082297], [34.3809430022228, 31.3876180426839], [34.3807038877621, 31.3874515068665], [34.3803716171082, 31.3871209757295], [34.3802166936543, 31.3869281539871], [34.3801503602571, 31.3866323033371], [34.3800800374417, 31.386141429783], [34.3798970856526, 31.3856117996314], [34.3795840542172, 31.3854627879861], [34.3792241136558, 31.3853366497619], [34.3788786081228, 31.3850959948641], [34.3786443849889, 31.3848308367184], [34.3783069849547, 31.3843897729262], [34.3778699958915, 31.3837332026227], [34.3772351717516, 31.3828390001221], [34.3765769680581, 31.3819892197495], [34.3757508413902, 31.380845203234], [34.3750969972207, 31.37987336996], [34.374552496886, 31.3788828051014], [34.3743927306144, 31.3786598988825], [34.3743639171517, 31.3783035647297], [34.374401807192, 31.377788851065], [34.3745749475816, 31.3773207187053], [34.3744946328053, 31.3769994097175], [34.3739956887336, 31.3766580086544], [34.3737812186544, 31.3764178492132], [34.3737207862903, 31.3760632391037], [34.3737247891832, 31.3756084048489], [34.3738999337142, 31.375026381693], [34.3740525682607, 31.3743361842284], [34.3737147496116, 31.3739488572792], [34.365018028192, 31.3751674150981], [34.3619144342253, 31.3783679780363], [34.3605998863509, 31.3801747552855], [34.3570620422843, 31.3823938317223], [34.3546560745774, 31.3839590792333], [34.3537560866302, 31.3852414748501], [34.351003002711, 31.3873899670811], [34.3453122256917, 31.3894016236434], [34.3415385217608, 31.3910160110051], [34.3374127545952, 31.3863032271359], [34.3346720925798, 31.3883042293132], [34.330333387861, 31.3907840956872], [34.3264218033137, 31.391730835204], [34.317980508862, 31.3906273180833], [34.3114841182043, 31.3898495892361], [34.3071410198255, 31.390639661047], [34.3031865263503, 31.3923398818967], [34.2985488497285, 31.3932413200664], [34.2987331804316, 31.3935101980349], [34.2990045767503, 31.3938522548109], [34.2995191137787, 31.3943006860914], [34.3000346596152, 31.3946444629904], [34.3007323146211, 31.3950941741066], [34.301702640655, 31.3957551261778], [34.3025208953861, 31.396362669933], [34.3031575404111, 31.3968119472538], [34.3035215153063, 31.3970499827042], [34.3040070699887, 31.3973412067559], [34.3045831928181, 31.3977377152373], [34.3054332380287, 31.3982146449922], [34.3062076927032, 31.3986288176756], [34.3068446233924, 31.3990519052477], [34.3074197652615, 31.3995530572215], [34.3085402967975, 31.4004766543286], [34.3091755117046, 31.4010828717209], [34.3099928573405, 31.4017950223131], [34.3108707629014, 31.4025599167094], [34.3118692780689, 31.4034826308594], [34.3134127562036, 31.404880091138], [34.3149855562474, 31.4064085552803], [34.3163469719251, 31.4077000569931], [34.3176796262424, 31.4088081920424], [34.3199848802295, 31.4103678272349], [34.3214987912149, 31.4116864932677], [34.3227217154219, 31.4126257571524], [34.3240540167013, 31.4137861506706], [34.3253253079998, 31.4149461166196], [34.3268698919605, 31.4162649283581], [34.3281119448932, 31.4172938436351], [34.3287476269242, 31.4178738070991], [34.329414823652, 31.4183493259222], [34.330112553218, 31.4188250539172], [34.330840082597, 31.4193794709586], [34.3316260150458, 31.4202220863795], [34.3325037759779, 31.4210391646265], [34.3334418857308, 31.4219351351128], [34.3352888327347, 31.4235960430215], [34.3364211636419, 31.4245134572898], [34.3374804875677, 31.4255148833151], [34.3378434644346, 31.4258836402947], [34.338174702026, 31.4263830031963], [34.338477338157, 31.4266728599236], [34.3389929666385, 31.4270426487072], [34.3396285408717, 31.4276487243516], [34.3408393872297, 31.4287819642252], [34.3421106075613, 31.4299940929435], [34.3433520388597, 31.4311275160241], [34.3441992346143, 31.4319704742859], [34.3449550923657, 31.4327866468851], [34.3458927197233, 31.4337610181901], [34.3468010251717, 31.434604368201], [34.3477692159102, 31.4355789306241], [34.3482520118664, 31.4362101063646], [34.3490993001474, 31.4370530281201], [34.3501278927073, 31.4381064707616], [34.3512791160833, 31.4391083977042], [34.3519451521877, 31.4397407767362], [34.3522152118133, 31.4402658630524], [34.353681142881, 31.4418663086935], [34.3545287662337, 31.4426830312454], [34.3554971186689, 31.443657541089], [34.3569197428551, 31.445053679339], [34.3591879979307, 31.4475019620212], [34.3609130399573, 31.4492401890297], [34.3620337385799, 31.4502679860548], [34.3628822027556, 31.4510061697753], [34.3631225191621, 31.4514525392202], [34.3635159920364, 31.4518475943678], [34.3641518968496, 31.4524535510041], [34.3645745146649, 31.4530057782641], [34.3652104239697, 31.4536117258756], [34.3657855092449, 31.4541911137009], [34.3669155431599, 31.4554485939879], [34.3676703840184, 31.4564216078103], [34.3688192241639, 31.4577373357293], [34.3697272646093, 31.4586590127372], [34.3703928641325, 31.4593697928016], [34.3708470137126, 31.4598175453503], [34.3714233233916, 31.4602660942062], [34.3719394863707, 31.4606095848928], [34.3726065034355, 31.4611633747383], [34.3733332189408, 31.4618745357776], [34.3743926623424, 31.4629541477557], [34.375573137559, 31.464165364004], [34.376573617342, 31.4650090993128], [34.3772177911475, 31.465789679034], [34.3808898857383, 31.4647300186285], [34.3839717476616, 31.4642813126236], [34.3866279365994, 31.4655866619801], [34.3895659108721, 31.4659567676719], [34.3922971953743, 31.4665011780821], [34.3948957502001, 31.4665761988294], [34.3968822639581, 31.4662373748331], [34.3983940028172, 31.465427043354], [34.3988204285909, 31.46355575616], [34.3997290933654, 31.4612775692824], [34.4012392269351, 31.4606428713168], [34.4038701453656, 31.4603984188845], [34.4057212102467, 31.459882928735], [34.4076396442827, 31.4594849481384], [34.4101760527587, 31.4587979679828], [34.413066201624, 31.4567076413225], [34.4141033524336, 31.45536712583], [34.4137063105528, 31.4537835100175], [34.4096278163307, 31.4508301671907], [34.4161516972327, 31.4413379656296], [34.4157502572002, 31.4402813801649], [34.4165249553181, 31.4375922973328], [34.4179257252901, 31.4336186939069], [34.4158086252358, 31.4333128651682], [34.4163034074128, 31.4313833629934], [34.4217847610882, 31.4300114843465], [34.4263766739361, 31.4286925317006], [34.4262188695851, 31.4267563291677]]]}, "properties": {"OBJECTID_1": 15, "OBJECTID": 15, "FID_govern": 14, "CODE1": 65, "NAME": "Deir Al Balah", "Name_Ar": "\u062f\u064a\u0631 \u0627\u0644\u0628\u0644\u062d", "FID_Palest": 1, "ENTITY": "Polyline", "Shape_Leng": 0.358083415279, "GlobalID": "23bc539d-dcf5-43c2-95e1-18f7eb2cdf2d", "Shape__Area": 0.005538327828617184, "Shape__Length": 0.3580834159436931}}, {"type": "Feature", "id": 16, "geometry": {"type": "Polygon", "coordinates": [[[34.3737147496116, 31.3739488572792], [34.3733723244017, 31.3735252102248], [34.3728551076988, 31.3731049543681], [34.3725478497356, 31.372807714898], [34.3719087073941, 31.3722791132576], [34.3719917000483, 31.372070879917], [34.3723818482576, 31.3712671390423], [34.3724594698847, 31.3707655063051], [34.3723188125758, 31.3702990601009], [34.372176195143, 31.3699864878077], [34.3719513719802, 31.3697253406351], [34.3714822986883, 31.3694735908737], [34.3709269871291, 31.3692609433174], [34.3704650877831, 31.3690744771779], [34.3700519211429, 31.3690395551954], [34.3697069069883, 31.3691029501276], [34.3692071328733, 31.3693738837486], [34.3687760942505, 31.3695974961674], [34.3683695266344, 31.3696484268838], [34.367993764046, 31.3695652612021], [34.3676500937711, 31.3693745541135], [34.3672895261858, 31.3688886511233], [34.3669913088676, 31.3684258090137], [34.366827394176, 31.3679044348971], [34.3666617861601, 31.3673174328225], [34.3665640530505, 31.3667453212567], [34.3664982523542, 31.36632764836], [34.3663611056615, 31.36581014918], [34.3660226447169, 31.3652184266906], [34.3657608163544, 31.3640191639078], [34.3655656286128, 31.3628112057583], [34.3655033816518, 31.3620732108366], [34.3654399255585, 31.3615781741677], [34.3655501847764, 31.3606460159307], [34.3658740894201, 31.359082438922], [34.3660953516611, 31.3574577582594], [34.3664206468969, 31.3557459102146], [34.3666787077251, 31.3539109122202], [34.3668356721514, 31.3518508188976], [34.3669532517406, 31.350228802691], [34.3675766151741, 31.345977563957], [34.3678069971119, 31.3432913443798], [34.3680951488073, 31.3417901770956], [34.3686006874115, 31.3392345320313], [34.3688195277945, 31.3378757290148], [34.3691455623437, 31.336046707831], [34.3697231081045, 31.3330655366591], [34.3703391879977, 31.329640125818], [34.3709572953885, 31.3258706160424], [34.3711084980205, 31.3243629113712], [34.3714410139145, 31.3217399820073], [34.3720847044263, 31.3190546560282], [34.372381364964, 31.3166897182422], [34.3726718352111, 31.315006323008], [34.3730044364451, 31.3119173190011], [34.3732944180087, 31.3102365883825], [34.3737687967507, 31.3072797973665], [34.3738513779764, 31.3058145646682], [34.3735459471866, 31.3047933833625], [34.3732077799911, 31.3037785600575], [34.3726991035716, 31.3028287611562], [34.3723298600572, 31.3017933338361], [34.3720188516278, 31.3011602668493], [34.3718520973616, 31.3004464288804], [34.3711378271162, 31.2992571472074], [34.3707389032648, 31.2979634422219], [34.3702349187461, 31.2963594763161], [34.3688457729738, 31.2932670153015], [34.3671750188348, 31.2906151762262], [34.366646311781, 31.2900004862743], [34.3648055847121, 31.2890903126585], [34.3622348677788, 31.2880993583194], [34.360357733788, 31.2870271332339], [34.35932440531, 31.2864378816619], [34.3582245287373, 31.2858973039978], [34.3559948077942, 31.2847883748352], [34.3544175556998, 31.2840687472235], [34.348112572673, 31.2808951148901], [34.345162587925, 31.2793964952087], [34.3429670137424, 31.2784211417654], [34.3426638700633, 31.2777167001253], [34.3422911303058, 31.2768428136799], [34.3417501289091, 31.2756364330721], [34.3413704047503, 31.2750089287843], [34.3406592247095, 31.274059133287], [34.3399518652037, 31.2730044753701], [34.3391190721381, 31.2717303561319], [34.3379533706147, 31.2698365311211], [34.3372039448007, 31.2686347239366], [34.3366162112463, 31.2676426747085], [34.3358573827662, 31.2668704718348], [34.3349795050531, 31.2658123050974], [34.3339749361389, 31.2647899709769], [34.3329725213847, 31.2635501943789], [34.3321749341934, 31.2627078547081], [34.3312510762125, 31.2617185950938], [34.3305945541652, 31.2611868208989], [34.3294003311316, 31.2642819487744], [34.327951609988, 31.267265031051], [34.323758824909, 31.2735548187374], [34.3205960229819, 31.2801840991903], [34.3165778865639, 31.2886659418561], [34.3137016058899, 31.2949748199588], [34.3089255653582, 31.2941454427738], [34.3032981159732, 31.2927587327144], [34.2967994256285, 31.2928966968824], [34.2927859829077, 31.2944605783469], [34.2882619638307, 31.2971230586668], [34.2845909103872, 31.3001589451553], [34.2816246975736, 31.304118428864], [34.282020017384, 31.3068475646557], [34.2732392720443, 31.3138270570654], [34.2719075986874, 31.3161457209359], [34.2694721006621, 31.3200335680331], [34.2660571578045, 31.325969760776], [34.2633752869311, 31.3304723426893], [34.2602198431045, 31.3343547097577], [34.254632999367, 31.3397123027472], [34.2487863709342, 31.3450306779795], [34.2461151837245, 31.3464096822495], [34.2463651291725, 31.3466253520679], [34.2470303558949, 31.3472059392213], [34.2474833951573, 31.3476541136573], [34.2479679994221, 31.347997866381], [34.249210420664, 31.3488182222375], [34.250368379608, 31.349864207292], [34.2520318403252, 31.351289449275], [34.254058763898, 31.3529790132064], [34.2561428409842, 31.3550614296899], [34.2583813744002, 31.3569617997695], [34.260106607768, 31.3583350676412], [34.2612241137781, 31.3594683620014], [34.2629176258365, 31.3609721819651], [34.2640962047095, 31.3621058948045], [34.264580941925, 31.3624495870299], [34.2650956747862, 31.362845827833], [34.2655809393128, 31.3631371886239], [34.2661572067709, 31.3634815482527], [34.2667934664187, 31.3639309958998], [34.267621044764, 31.3645989019386], [34.2681344984243, 31.3651259413585], [34.2686792422024, 31.3655747107511], [34.2696772309572, 31.3664715819271], [34.2701304642557, 31.3669196798817], [34.270676265351, 31.3672637940116], [34.2717963243731, 31.3681615342082], [34.2726438758605, 31.3688479718792], [34.2732483989276, 31.3694279846277], [34.2738529291812, 31.3700079937965], [34.2749435611912, 31.3708008341542], [34.2763357279978, 31.3719621588529], [34.2768500377524, 31.3724106747118], [34.2777051027489, 31.3735903861111], [34.2790934930379, 31.3751441140682], [34.2800903921363, 31.3761717199683], [34.2811178231745, 31.37719953781], [34.2823273310427, 31.3783333141299], [34.2843189948423, 31.3806239329018], [34.2851654800294, 31.3814410997765], [34.2856783578695, 31.3820465627386], [34.2862515036821, 31.3827309456831], [34.2867056550588, 31.3831005019639], [34.2873431570766, 31.3834451971929], [34.2881004305729, 31.3840262302872], [34.28897952191, 31.3846342970257], [34.2896585108225, 31.3851254622022], [34.2905066021974, 31.385785621712], [34.2907774361707, 31.3861800187193], [34.2912006028567, 31.3866016669993], [34.2919276624167, 31.3871562989623], [34.2928047792568, 31.3879736382952], [34.2937419349988, 31.3888960548794], [34.2942566813347, 31.3893183397157], [34.294528048009, 31.3896604079284], [34.2948601955937, 31.3900290650468], [34.2957086193453, 31.3906630287821], [34.296344186392, 31.3912169872538], [34.2969497434199, 31.3917184018983], [34.2973121768062, 31.3921134342233], [34.2977061356689, 31.39240403176], [34.2980995950684, 31.3927469529346], [34.2985488497285, 31.3932413200664], [34.3031865263503, 31.3923398818967], [34.3071410198255, 31.390639661047], [34.3114841182043, 31.3898495892361], [34.317980508862, 31.3906273180833], [34.3264218033137, 31.391730835204], [34.330333387861, 31.3907840956872], [34.3346720925798, 31.3883042293132], [34.3374127545952, 31.3863032271359], [34.3415385217608, 31.3910160110051], [34.3453122256917, 31.3894016236434], [34.351003002711, 31.3873899670811], [34.3537560866302, 31.3852414748501], [34.3546560745774, 31.3839590792333], [34.3570620422843, 31.3823938317223], [34.3605998863509, 31.3801747552855], [34.3619144342253, 31.3783679780363], [34.365018028192, 31.3751674150981], [34.3737147496116, 31.3739488572792]]]}, "properties": {"OBJECTID_1": 16, "OBJECTID": 16, "FID_govern": 15, "CODE1": 70, "NAME": "Khan Yunis", "Name_Ar": "\u062e\u0627\u0646\u064a\u0648\u0646\u0633", "FID_Palest": 1, "ENTITY": "Polyline", "Shape_Leng": 0.426564244196, "GlobalID": "05ae66de-3353-4eff-acf3-fd25230aba08", "Shape__Area": 0.010199463298249611, "Shape__Length": 0.42656424500638646}}, {"type": "Feature", "id": 17, "geometry": {"type": "Polygon", "coordinates": [[[34.3305945541652, 31.2611868208989], [34.3303648657268, 31.2609456342103], [34.3291470691035, 31.2599932252715], [34.3282674378789, 31.2592624911881], [34.3273851018271, 31.2585294868778], [34.3260360298997, 31.2574996488509], [34.3248166720044, 31.2567652931249], [34.3236871123999, 31.2559257350164], [34.3226933322522, 31.2552008679767], [34.3214755392221, 31.2542848562217], [34.3195368158372, 31.2529238741155], [34.317802760115, 31.252036238806], [34.3168713706588, 31.2516283277888], [34.3155212396176, 31.2511100061337], [34.3136695926282, 31.2504082312864], [34.3117701193329, 31.2496310268354], [34.3096094923099, 31.2490416000393], [34.3080824245988, 31.2484198570212], [34.3062762036166, 31.2473676320521], [34.3044579505995, 31.2463083457905], [34.2997214422285, 31.2442331027561], [34.2964204353933, 31.2427866566459], [34.2932404630679, 31.2414405856297], [34.2919923518969, 31.2405402362499], [34.2912864431703, 31.2399239749909], [34.2895416121563, 31.2381623061965], [34.2881770972908, 31.2364927807986], [34.2862610806213, 31.2345326218194], [34.2851639519951, 31.233334629743], [34.2832962539082, 31.2318475709729], [34.2817128303878, 31.2304648728352], [34.2804966740881, 31.229209420015], [34.27984384232, 31.2289665308462], [34.2775880307078, 31.2280965646252], [34.2757665356708, 31.2274173518314], [34.2730628096849, 31.2266850881936], [34.2709720087088, 31.2261013302165], [34.2680050592767, 31.2251804586217], [34.2659641677995, 31.2243821718303], [34.2656951645927, 31.2250025812566], [34.2650708381652, 31.2267054938586], [34.2641043380561, 31.2294967743022], [34.2626304003042, 31.2333277819894], [34.2613243756453, 31.2369228581246], [34.2597859999414, 31.2416545149651], [34.2588815033498, 31.2437347630864], [34.2580298402733, 31.2460525372997], [34.2576299471398, 31.2473776160751], [34.2551246598984, 31.2538934297255], [34.2542704276402, 31.256448299144], [34.2529046991508, 31.2604222602782], [34.2505172448236, 31.2670920856963], [34.2471016300261, 31.2768184917448], [34.2469272481649, 31.2776709181233], [34.2447695388699, 31.2833937441053], [34.2425553426115, 31.2892109537786], [34.2411376906004, 31.2927575060379], [34.2406220037284, 31.2945559372475], [34.2401116016452, 31.2958326903441], [34.2396651506271, 31.2962561991034], [34.2393326068853, 31.2963485556265], [34.2381163391946, 31.2963868390591], [34.2358481317297, 31.296606896724], [34.2354583787791, 31.2968885291333], [34.2333691606346, 31.3005102346328], [34.2326928343285, 31.3017856966255], [34.2293744837202, 31.3073571451057], [34.2267346881381, 31.3114159460957], [34.2239209751236, 31.3162322169687], [34.2210023343925, 31.3204784730456], [34.2186651848229, 31.323752329124], [34.2192402287756, 31.3241753770335], [34.2196641680127, 31.3244664370965], [34.2199198743566, 31.3245891570125], [34.2210087339906, 31.3254609363605], [34.2220665676113, 31.3263847928709], [34.2231554676694, 31.3272565502191], [34.2244262792676, 31.3282343479403], [34.2253333216847, 31.3290000391612], [34.2256971124253, 31.3292121309006], [34.2260611843386, 31.3293980560808], [34.2263936705882, 31.3296884009572], [34.2266649070068, 31.3300044443218], [34.2270273502745, 31.330347343811], [34.2276332468656, 31.3307444196668], [34.228359241922, 31.3313255652124], [34.2290555602347, 31.3318279823148], [34.2297213879301, 31.3323301680768], [34.2302344571113, 31.3328573530504], [34.2305658914337, 31.3332523350906], [34.2313224220233, 31.3338336953399], [34.2325011095924, 31.3348892056307], [34.2334207796275, 31.335748277002], [34.2342675082581, 31.336461123872], [34.2350235501641, 31.3370947883668], [34.2356284406422, 31.3375964779913], [34.2362649158856, 31.3379937503719], [34.2369613249281, 31.3384961280388], [34.2373837765551, 31.3389441076552], [34.2380186617805, 31.3394983456976], [34.2388956789075, 31.3402375551051], [34.2398331858909, 31.3410295386272], [34.2410725232164, 31.3421377559418], [34.2421007690266, 31.3430089039725], [34.2427967082502, 31.3435635776337], [34.2436125339368, 31.3443284613136], [34.2440965776529, 31.3447245483177], [34.2445493231662, 31.345198897039], [34.2456696759374, 31.3460183781506], [34.2461151837245, 31.3464096822495], [34.2487863709342, 31.3450306779795], [34.254632999367, 31.3397123027472], [34.2602198431045, 31.3343547097577], [34.2633752869311, 31.3304723426893], [34.2660571578045, 31.325969760776], [34.2694721006621, 31.3200335680331], [34.2719075986874, 31.3161457209359], [34.2732392720443, 31.3138270570654], [34.282020017384, 31.3068475646557], [34.2816246975736, 31.304118428864], [34.2845909103872, 31.3001589451553], [34.2882619638307, 31.2971230586668], [34.2927859829077, 31.2944605783469], [34.2967994256285, 31.2928966968824], [34.3032981159732, 31.2927587327144], [34.3089255653582, 31.2941454427738], [34.3137016058899, 31.2949748199588], [34.3165778865639, 31.2886659418561], [34.3205960229819, 31.2801840991903], [34.323758824909, 31.2735548187374], [34.327951609988, 31.267265031051], [34.3294003311316, 31.2642819487744], [34.3305945541652, 31.2611868208989]]]}, "properties": {"OBJECTID_1": 17, "OBJECTID": 17, "FID_govern": 16, "CODE1": 75, "NAME": "Rafah", "Name_Ar": "\u0631\u0641\u062d", "FID_Palest": 1, "ENTITY": "Polyline", "Shape_Leng": 0.35520062848, "GlobalID": "f4ed0bc8-304e-4481-a346-1ac5332913d0", "Shape__Area": 0.006030497294887027, "Shape__Length": 0.3552006301254358}}, {"type": "Feature", "id": 1, "geometry": {"type": "MultiPolygon", "coordinates": [[[[35.1380940035879, 32.8138803878554], [35.1331784176731, 32.8068088489517], [35.1243784331263, 32.8022510719166], [35.110487543838, 32.7985261553995], [35.1071566789892, 32.7959148230384], [35.0994320736582, 32.7857896350455], [35.0944992841701, 32.7803443843606], [35.0872632004309, 32.7708554086992], [35.0847712521975, 32.7685780788272], [35.0749543139621, 32.760874761153], [35.0657212101845, 32.7473843411089], [35.0642891570154, 32.7319818282966], [35.0481686209558, 32.7269393441463], [35.0419358520204, 32.7204456181751], [35.0398114743001, 32.7128541327741], [35.0240300795499, 32.7100400601154], [35.0177064511564, 32.7098188695383], [35.0133387986549, 32.7167668600042], [35.0143543452509, 32.7216740004843], [35.0164768207334, 32.7268222402714], [35.0145218526032, 32.7341372805194], [35.0073619632076, 32.7387602223149], [34.9987603140796, 32.7376669400618], [34.9881432434948, 32.7279430659687], [34.9818594842571, 32.7294160666468], [34.964215871551, 32.7396182844925], [34.9630603600373, 32.742384404991], [34.9635165285703, 32.7527044744423], [34.9610131250106, 32.7549771391847], [34.9553932641244, 32.7593565520277], [34.9608951791685, 32.7636839721673], [34.9611790085445, 32.7701077477676], [34.95732665614, 32.771820285274], [34.9518404790997, 32.7697845508812], [34.9527770955158, 32.776492901547], [34.9555323933379, 32.8026461544291], [34.9554156234505, 32.8038379630656], [34.9533016236967, 32.8053687927891], [34.9523104211435, 32.8064079438597], [34.955413456414, 32.8062036041933], [34.9527011131956, 32.8165865468217], [34.9533333618448, 32.8234351127908], [34.9531816365442, 32.8249836691362], [34.9579931675083, 32.8262172468963], [34.9607108447173, 32.8288930534813], [34.9629907187908, 32.83055914767], [34.9693265886818, 32.8315473603452], [34.9737452003337, 32.832926637979], [34.9772845061783, 32.8346022716621], [34.9790591804758, 32.836348821257], [34.9845847300845, 32.8359838886465], [34.9863277216018, 32.8342830560074], [34.9874771258941, 32.8334505024893], [34.9884702310044, 32.8315818663703], [34.9896195804712, 32.8307492925903], [34.9919585731567, 32.8255769406033], [34.9979123595298, 32.8233457487926], [35.0031129163621, 32.81826875491], [35.0049651263358, 32.8172501139744], [35.0078697457872, 32.8201077686155], [35.0077095699316, 32.821752851371], [35.0086781531627, 32.8235004121262], [35.0106197983059, 32.8146054285873], [35.0174567709719, 32.8120417236136], [35.023078544077, 32.8137944454119], [35.0264257758932, 32.8135721354615], [35.028158660519, 32.8087410988913], [35.0350729070461, 32.811211334565], [35.0365630474793, 32.8130056697985], [35.0312647939783, 32.8126388735556], [35.0301254250254, 32.814785563575], [35.0285890534013, 32.8158995664453], [35.0290919549312, 32.816376461033], [35.0327034037348, 32.817782134791], [35.0415650772205, 32.8232305575492], [35.0531351945939, 32.8365416724833], [35.0614094616009, 32.8494380682476], [35.0685173419723, 32.8650928357671], [35.0739060140368, 32.8794949354193], [35.0759737521704, 32.8858592256649], [35.0765375095005, 32.886285249213], [35.0774471056455, 32.8791556563989], [35.086925854709, 32.8724122693271], [35.1160257395949, 32.8713644785564], [35.1219493576329, 32.8687244688507], [35.125534297567, 32.8672994921279], [35.1318803720847, 32.8638464908082], [35.1348589259126, 32.8615204965795], [35.1347369744663, 32.8588795286193], [35.1360746142125, 32.8567492597246], [35.1344956915097, 32.852530283521], [35.1232825050262, 32.8464086317821], [35.1188460208917, 32.8415169228187], [35.1184585771655, 32.8330911334404], [35.1233702041253, 32.8286227101641], [35.1367692546205, 32.8222648632639], [35.1381687374209, 32.8189002034761], [35.138014161592, 32.8155546868754], [35.1380940035879, 32.8138803878554]]], [[[35.1101196010465, 32.9234216520163], [35.1081386536109, 32.9130880735511], [35.1042483092102, 32.9092719781236], [35.0924160614804, 32.9069939394875], [35.0898326958853, 32.9039134411716], [35.0865105162174, 32.8994279676229], [35.0835887404352, 32.896560400035], [35.0812946224643, 32.8948890422616], [35.0781731520353, 32.8912123307536], [35.0775996906401, 32.8907944771222], [35.0780897693684, 32.8939842148721], [35.0792303969047, 32.8993280477616], [35.0806542516281, 32.9072734309339], [35.080028694561, 32.9137449640612], [35.0777977471518, 32.9188502712992], [35.0719624946103, 32.92186120002], [35.0674434279383, 32.9191514529767], [35.0649070324114, 32.9183141038665], [35.0688702711756, 32.9295267459992], [35.070628709648, 32.9335808818424], [35.0717442942825, 32.9367197549947], [35.071606291623, 32.9381450668743], [35.0721839547523, 32.9394766231182], [35.0769565176267, 32.9389972340449], [35.0904725229013, 32.9378478878545], [35.0989182147255, 32.9357117281586], [35.1078809702117, 32.9302955393045], [35.1101196010465, 32.9234216520163]]]]}, "properties": {"OBJECTID_1": 1, "OBJECTID": 17, "ID": 31, "GRIDCODE": 1, "area": 170332000, "no_moked": 9, "shem_moked": "\u05d7\u05d9\u05e4\u05d4", "Shape_Leng": 89387.930141}}]}